start=new Date('2023-02-27T00:00:00.000Z').valueOf();
sats=[{"OBJECT_TYPE":"PAYLOAD","CENTER_NAME":"EARTH","APOAPSIS":"540.756","CLASSIFICATION_TYPE":"U","LAUNCH_DATE":"2022-08-28","DECAY_DATE":null,"TLE_LINE1":"1 53626U 22104AQ  23057.70916003  .00002401  00000-0  16878-3 0  9994","TLE_LINE2":"2 53626  53.2160 163.1910 0001547 115.3276 244.7876 15.08859365 28642","BSTAR":"0.00016878000000","FILE":"3843368","MEAN_MOTION_DDOT":"0.0000000000000","OBJECT_ID":"2022-104AQ","NORAD_CAT_ID":"53626","TIME_SYSTEM":"UTC","MEAN_ELEMENT_THEORY":"SGP4","REV_AT_EPOCH":"2864","REF_FRAME":"TEME","SEMIMAJOR_AXIS":"6917.821","RCS_SIZE":"LARGE","EPOCH":"2023-02-26T17:01:11.426592","EPHEMERIS_TYPE":"0","PERIAPSIS":"538.616","PERIOD":"95.436","MEAN_MOTION":"15.08859365","GP_ID":"227069812","OBJECT_NAME":"STARLINK-4554","MEAN_MOTION_DOT":"0.00002401","ECCENTRICITY":"0.00015470","COUNTRY_CODE":"US","INCLINATION":"53.2160","MEAN_ANOMALY":"244.7876","SITE":"AFETR","RA_OF_ASC_NODE":"163.1910","ARG_OF_PERICENTER":"115.3276","ELEMENT_SET_NO":"999"},{"INCLINATION":"53.2168","MEAN_ANOMALY":"263.0589","RA_OF_ASC_NODE":"163.8285","SITE":"AFETR","ARG_OF_PERICENTER":"97.0558","ELEMENT_SET_NO":"999","MEAN_MOTION":"15.08849073","GP_ID":"227070032","OBJECT_NAME":"STARLINK-4595","MEAN_MOTION_DOT":"0.00002474","ECCENTRICITY":"0.00013620","COUNTRY_CODE":"US","EPHEMERIS_TYPE":"0","PERIAPSIS":"538.775","PERIOD":"95.437","REV_AT_EPOCH":"2862","REF_FRAME":"TEME","EPOCH":"2023-02-26T14:01:02.622432","RCS_SIZE":"LARGE","SEMIMAJOR_AXIS":"6917.853","OBJECT_ID":"2022-104AR","NORAD_CAT_ID":"53627","TIME_SYSTEM":"UTC","MEAN_ELEMENT_THEORY":"SGP4","BSTAR":"0.00017341000000","TLE_LINE2":"2 53627  53.2168 163.8285 0001362  97.0558 263.0589 15.08849073 28625","FILE":"3843368","MEAN_MOTION_DDOT":"0.0000000000000","LAUNCH_DATE":"2022-08-28","DECAY_DATE":null,"TLE_LINE1":"1 53627U 22104AR  23057.58405813  .00002474  00000-0  17341-3 0  9999","OBJECT_TYPE":"PAYLOAD","CENTER_NAME":"EARTH","CLASSIFICATION_TYPE":"U","APOAPSIS":"540.660"},{"REF_FRAME":"TEME","EPOCH":"2023-02-26T16:50:36.309696","RCS_SIZE":"LARGE","SEMIMAJOR_AXIS":"6917.743","REV_AT_EPOCH":"2864","PERIOD":"95.435","EPHEMERIS_TYPE":"0","PERIAPSIS":"538.745","OBJECT_NAME":"STARLINK-4600","MEAN_MOTION_DOT":"0.00033795","ECCENTRICITY":"0.00012470","COUNTRY_CODE":"US","MEAN_MOTION":"15.08885078","GP_ID":"227068310","MEAN_ANOMALY":"271.9681","INCLINATION":"53.2144","RA_OF_ASC_NODE":"163.1469","SITE":"AFETR","ARG_OF_PERICENTER":"88.1454","ELEMENT_SET_NO":"999","CLASSIFICATION_TYPE":"U","APOAPSIS":"540.470","OBJECT_TYPE":"PAYLOAD","CENTER_NAME":"EARTH","TLE_LINE1":"1 53628U 22104AS  23057.70180914  .00033795  00000-0  21287-2 0  9999","LAUNCH_DATE":"2022-08-28","DECAY_DATE":null,"BSTAR":"0.00212870000000","TLE_LINE2":"2 53628  53.2144 163.1469 0001247  88.1454 271.9681 15.08885078 28643","FILE":"3843368","MEAN_MOTION_DDOT":"0.0000000000000","NORAD_CAT_ID":"53628","TIME_SYSTEM":"UTC","MEAN_ELEMENT_THEORY":"SGP4","OBJECT_ID":"2022-104AS"},{"PERIAPSIS":"538.922","EPHEMERIS_TYPE":"0","PERIOD":"95.436","REV_AT_EPOCH":"2864","SEMIMAJOR_AXIS":"6917.809","RCS_SIZE":"LARGE","EPOCH":"2023-02-26T17:06:29.747520","REF_FRAME":"TEME","SITE":"AFETR","ARG_OF_PERICENTER":"95.5364","RA_OF_ASC_NODE":"163.2126","ELEMENT_SET_NO":"999","MEAN_ANOMALY":"264.5752","INCLINATION":"53.2176","GP_ID":"227068560","MEAN_MOTION":"15.08863286","ECCENTRICITY":"0.00010870","COUNTRY_CODE":"US","MEAN_MOTION_DOT":"0.00001864","OBJECT_NAME":"STARLINK-4602","DECAY_DATE":null,"LAUNCH_DATE":"2022-08-28","TLE_LINE1":"1 53629U 22104AT  23057.71284430  .00001864  00000-0  13508-3 0  9999","CENTER_NAME":"EARTH","OBJECT_TYPE":"PAYLOAD","APOAPSIS":"540.426","CLASSIFICATION_TYPE":"U","OBJECT_ID":"2022-104AT","MEAN_ELEMENT_THEORY":"SGP4","TIME_SYSTEM":"UTC","NORAD_CAT_ID":"53629","MEAN_MOTION_DDOT":"0.0000000000000","FILE":"3843368","TLE_LINE2":"2 53629  53.2176 163.2126 0001087  95.5364 264.5752 15.08863286 28648","BSTAR":"0.00013508000000"},{"PERIAPSIS":"538.848","EPHEMERIS_TYPE":"0","PERIOD":"95.436","REV_AT_EPOCH":"2894","SEMIMAJOR_AXIS":"6917.796","RCS_SIZE":"LARGE","EPOCH":"2023-02-26T16:20:11.745600","REF_FRAME":"TEME","SITE":"AFETR","RA_OF_ASC_NODE":"153.7378","ELEMENT_SET_NO":"999","ARG_OF_PERICENTER":"117.0973","MEAN_ANOMALY":"243.0140","INCLINATION":"53.2181","GP_ID":"227069312","MEAN_MOTION":"15.08867598","ECCENTRICITY":"0.00011760","COUNTRY_CODE":"US","OBJECT_NAME":"STARLINK-4598","MEAN_MOTION_DOT":"0.00001486","DECAY_DATE":null,"LAUNCH_DATE":"2022-08-28","TLE_LINE1":"1 53630U 22104AU  23057.68069150  .00001486  00000-0  11133-3 0  9999","CENTER_NAME":"EARTH","OBJECT_TYPE":"PAYLOAD","APOAPSIS":"540.475","CLASSIFICATION_TYPE":"U","OBJECT_ID":"2022-104AU","MEAN_ELEMENT_THEORY":"SGP4","TIME_SYSTEM":"UTC","NORAD_CAT_ID":"53630","MEAN_MOTION_DDOT":"0.0000000000000","FILE":"3843368","TLE_LINE2":"2 53630  53.2181 153.7378 0001176 117.0973 243.0140 15.08867598 28940","BSTAR":"0.00011133000000"},{"MEAN_MOTION_DDOT":"0.0000000000000","FILE":"3843368","TLE_LINE2":"2 53631  53.2163 163.1645 0001357 120.8789 239.2336 15.08863825 28641","BSTAR":"0.00015332000000","OBJECT_ID":"2022-104AV","TIME_SYSTEM":"UTC","MEAN_ELEMENT_THEORY":"SGP4","NORAD_CAT_ID":"53631","CENTER_NAME":"EARTH","OBJECT_TYPE":"PAYLOAD","APOAPSIS":"540.611","CLASSIFICATION_TYPE":"U","DECAY_DATE":null,"LAUNCH_DATE":"2022-08-28","TLE_LINE1":"1 53631U 22104AV  23057.70547830  .00002155  00000-0  15332-3 0  9998","GP_ID":"227069532","MEAN_MOTION":"15.08863825","COUNTRY_CODE":"US","ECCENTRICITY":"0.00013570","MEAN_MOTION_DOT":"0.00002155","OBJECT_NAME":"STARLINK-4599","ARG_OF_PERICENTER":"120.8789","SITE":"AFETR","RA_OF_ASC_NODE":"163.1645","ELEMENT_SET_NO":"999","MEAN_ANOMALY":"239.2336","INCLINATION":"53.2163","REV_AT_EPOCH":"2864","SEMIMAJOR_AXIS":"6917.808","RCS_SIZE":"LARGE","EPOCH":"2023-02-26T16:55:53.325120","REF_FRAME":"TEME","PERIAPSIS":"538.734","EPHEMERIS_TYPE":"0","PERIOD":"95.436"},{"REV_AT_EPOCH":"2910","REF_FRAME":"TEME","RCS_SIZE":"LARGE","SEMIMAJOR_AXIS":"6917.756","EPOCH":"2023-02-26T16:09:36.514656","EPHEMERIS_TYPE":"0","PERIAPSIS":"538.737","PERIOD":"95.435","MEAN_MOTION":"15.08880601","GP_ID":"227068811","MEAN_MOTION_DOT":"0.00033216","OBJECT_NAME":"STARLINK-4606","COUNTRY_CODE":"US","ECCENTRICITY":"0.00012790","INCLINATION":"53.2165","MEAN_ANOMALY":"262.8612","SITE":"AFETR","RA_OF_ASC_NODE":"153.6920","ARG_OF_PERICENTER":"97.2526","ELEMENT_SET_NO":"999","OBJECT_TYPE":"PAYLOAD","CENTER_NAME":"EARTH","APOAPSIS":"540.506","CLASSIFICATION_TYPE":"U","LAUNCH_DATE":"2022-08-28","DECAY_DATE":null,"TLE_LINE1":"1 53632U 22104AW  23057.67333929  .00033216  00000-0  20930-2 0  9998","TLE_LINE2":"2 53632  53.2165 153.6920 0001279  97.2526 262.8612 15.08880601 29105","BSTAR":"0.00209300000000","FILE":"3843368","MEAN_MOTION_DDOT":"0.0000000000000","OBJECT_ID":"2022-104AW","NORAD_CAT_ID":"53632","TIME_SYSTEM":"UTC","MEAN_ELEMENT_THEORY":"SGP4"},{"REV_AT_EPOCH":"2877","REF_FRAME":"TEME","SEMIMAJOR_AXIS":"6917.827","RCS_SIZE":"LARGE","EPOCH":"2023-02-26T16:14:54.676608","EPHEMERIS_TYPE":"0","PERIAPSIS":"538.684","PERIOD":"95.436","MEAN_MOTION":"15.08857369","GP_ID":"227069061","OBJECT_NAME":"STARLINK-4593","MEAN_MOTION_DOT":"0.00000994","ECCENTRICITY":"0.00014570","COUNTRY_CODE":"US","MEAN_ANOMALY":"261.9751","INCLINATION":"53.2187","SITE":"AFETR","RA_OF_ASC_NODE":"153.7164","ELEMENT_SET_NO":"999","ARG_OF_PERICENTER":"98.1407","OBJECT_TYPE":"PAYLOAD","CENTER_NAME":"EARTH","APOAPSIS":"540.700","CLASSIFICATION_TYPE":"U","LAUNCH_DATE":"2022-08-28","DECAY_DATE":null,"TLE_LINE1":"1 53633U 22104AX  23057.67702172  .00000994  00000-0  80484-4 0  9998","BSTAR":"0.00008048400000","TLE_LINE2":"2 53633  53.2187 153.7164 0001457  98.1407 261.9751 15.08857369 28778","FILE":"3843368","MEAN_MOTION_DDOT":"0.0000000000000","OBJECT_ID":"2022-104AX","NORAD_CAT_ID":"53633","TIME_SYSTEM":"UTC","MEAN_ELEMENT_THEORY":"SGP4"},{"MEAN_MOTION_DDOT":"0.0000000000000","FILE":"3843368","BSTAR":"0.00023228000000","TLE_LINE2":"2 53634  53.2189 153.3463 0001173  92.7964 267.3163 15.08867261 29110","OBJECT_ID":"2022-104AY","MEAN_ELEMENT_THEORY":"SGP4","TIME_SYSTEM":"UTC","NORAD_CAT_ID":"53634","CENTER_NAME":"EARTH","OBJECT_TYPE":"PAYLOAD","APOAPSIS":"540.474","CLASSIFICATION_TYPE":"U","DECAY_DATE":null,"LAUNCH_DATE":"2022-08-28","TLE_LINE1":"1 53634U 22104AY  23057.73218799  .00003413  00000-0  23228-3 0  9994","GP_ID":"227069813","MEAN_MOTION":"15.08867261","COUNTRY_CODE":"US","ECCENTRICITY":"0.00011730","OBJECT_NAME":"STARLINK-4592","MEAN_MOTION_DOT":"0.00003413","ARG_OF_PERICENTER":"92.7964","SITE":"AFETR","RA_OF_ASC_NODE":"153.3463","ELEMENT_SET_NO":"999","MEAN_ANOMALY":"267.3163","INCLINATION":"53.2189","REV_AT_EPOCH":"2911","RCS_SIZE":"LARGE","SEMIMAJOR_AXIS":"6917.797","EPOCH":"2023-02-26T17:34:21.042336","REF_FRAME":"TEME","PERIAPSIS":"538.851","EPHEMERIS_TYPE":"0","PERIOD":"95.436"},{"MEAN_ELEMENT_THEORY":"SGP4","TIME_SYSTEM":"UTC","NORAD_CAT_ID":"53635","OBJECT_ID":"2022-104AZ","MEAN_MOTION_DDOT":"0.0000000000000","FILE":"3843368","TLE_LINE2":"2 53635  53.2184 153.6638 0001219  97.4769 262.6362 15.08865077 29100","BSTAR":"0.00007577600000","TLE_LINE1":"1 53635U 22104AZ  23057.66964146  .00000919  00000-0  75776-4 0  9995","DECAY_DATE":null,"LAUNCH_DATE":"2022-08-28","APOAPSIS":"540.512","CLASSIFICATION_TYPE":"U","CENTER_NAME":"EARTH","OBJECT_TYPE":"PAYLOAD","SITE":"AFETR","RA_OF_ASC_NODE":"153.6638","ARG_OF_PERICENTER":"97.4769","ELEMENT_SET_NO":"999","INCLINATION":"53.2184","MEAN_ANOMALY":"262.6362","COUNTRY_CODE":"US","ECCENTRICITY":"0.00012190","MEAN_MOTION_DOT":"0.00000919","OBJECT_NAME":"STARLINK-4587","GP_ID":"227070033","MEAN_MOTION":"15.08865077","PERIOD":"95.436","PERIAPSIS":"538.825","EPHEMERIS_TYPE":"0","SEMIMAJOR_AXIS":"6917.804","RCS_SIZE":"LARGE","EPOCH":"2023-02-26T16:04:17.022144","REF_FRAME":"TEME","REV_AT_EPOCH":"2910"}];
